start=new Date('2022-10-24T00:00:00.000Z').valueOf();
sats=[{"COUNTRY_CODE":"US","RCS_SIZE":"LARGE","REV_AT_EPOCH":"10614","FILE":"3630604","OBJECT_NAME":"STARLINK-1861","MEAN_MOTION":"15.06401787","OBJECT_ID":"2020-088AC","EPHEMERIS_TYPE":"0","TIME_SYSTEM":"UTC","ECCENTRICITY":"0.00016450","GP_ID":"215994725","NORAD_CAT_ID":"47148","RA_OF_ASC_NODE":"66.5374","ARG_OF_PERICENTER":"63.4617","TLE_LINE2":"2 47148  53.0543  66.5374 0001645  63.4617 296.6540 15.06401787106143","OBJECT_TYPE":"PAYLOAD","CLASSIFICATION_TYPE":"U","APOAPSIS":"548.347","BSTAR":"0.00006457400000","PERIAPSIS":"546.069","LAUNCH_DATE":"2020-11-25","SEMIMAJOR_AXIS":"6925.343","SITE":"AFETR","MEAN_ELEMENT_THEORY":"SGP4","CENTER_NAME":"EARTH","PERIOD":"95.592","ELEMENT_SET_NO":"999","REF_FRAME":"TEME","MEAN_ANOMALY":"296.6540","DECAY_DATE":null,"MEAN_MOTION_DOT":"0.00000680","TLE_LINE1":"1 47148U 20088AC  22296.74304037  .00000680  00000-0  64574-4 0  9995","INCLINATION":"53.0543","EPOCH":"2022-10-23T17:49:58.687968","MEAN_MOTION_DDOT":"0.0000000000000"},{"TIME_SYSTEM":"UTC","ECCENTRICITY":"0.00012940","GP_ID":"215994476","NORAD_CAT_ID":"47149","RA_OF_ASC_NODE":"76.4016","ARG_OF_PERICENTER":"105.0751","APOAPSIS":"548.095","TLE_LINE2":"2 47149  53.0556  76.4016 0001294 105.0751 255.0381 15.06404898106747","CLASSIFICATION_TYPE":"U","OBJECT_TYPE":"PAYLOAD","COUNTRY_CODE":"US","RCS_SIZE":"LARGE","REV_AT_EPOCH":"10674","FILE":"3630604","OBJECT_NAME":"STARLINK-1862","EPHEMERIS_TYPE":"0","MEAN_MOTION":"15.06404898","OBJECT_ID":"2020-088AD","PERIOD":"95.592","ELEMENT_SET_NO":"999","MEAN_ANOMALY":"255.0381","DECAY_DATE":null,"TLE_LINE1":"1 47149U 20088AD  22296.77160460  .00002109  00000-0  16041-3 0  9992","MEAN_MOTION_DOT":"0.00002109","REF_FRAME":"TEME","EPOCH":"2022-10-23T18:31:06.637440","INCLINATION":"53.0556","MEAN_MOTION_DDOT":"0.0000000000000","BSTAR":"0.00016041000000","SEMIMAJOR_AXIS":"6925.334","SITE":"AFETR","PERIAPSIS":"546.302","LAUNCH_DATE":"2020-11-25","CENTER_NAME":"EARTH","MEAN_ELEMENT_THEORY":"SGP4"},{"GP_ID":"215993224","TIME_SYSTEM":"UTC","ECCENTRICITY":"0.00012650","TLE_LINE2":"2 47150  53.0554  67.0183 0001265  89.1450 270.9684 15.06411289106131","OBJECT_TYPE":"PAYLOAD","CLASSIFICATION_TYPE":"U","APOAPSIS":"548.055","ARG_OF_PERICENTER":"89.1450","RA_OF_ASC_NODE":"67.0183","NORAD_CAT_ID":"47150","FILE":"3630604","REV_AT_EPOCH":"10613","RCS_SIZE":"LARGE","COUNTRY_CODE":"US","OBJECT_ID":"2020-088AE","MEAN_MOTION":"15.06411289","EPHEMERIS_TYPE":"0","OBJECT_NAME":"STARLINK-1863","REF_FRAME":"TEME","MEAN_MOTION_DOT":"0.00001954","TLE_LINE1":"1 47150U 20088AE  22296.63245728  .00001954  00000-0  15001-3 0  9992","DECAY_DATE":null,"MEAN_ANOMALY":"270.9684","ELEMENT_SET_NO":"999","PERIOD":"95.591","MEAN_MOTION_DDOT":"0.0000000000000","INCLINATION":"53.0554","EPOCH":"2022-10-23T15:10:44.308992","LAUNCH_DATE":"2020-11-25","PERIAPSIS":"546.303","SITE":"AFETR","SEMIMAJOR_AXIS":"6925.314","BSTAR":"0.00015001000000","MEAN_ELEMENT_THEORY":"SGP4","CENTER_NAME":"EARTH"},{"INCLINATION":"53.0548","EPOCH":"2022-10-23T16:44:57.561216","MEAN_MOTION_DDOT":"0.0000000000000","PERIOD":"95.592","ELEMENT_SET_NO":"999","REF_FRAME":"TEME","MEAN_ANOMALY":"266.0926","DECAY_DATE":null,"TLE_LINE1":"1 47151U 20088AF  22296.69788844  .00000670  00000-0  63869-4 0  9990","MEAN_MOTION_DOT":"0.00000670","MEAN_ELEMENT_THEORY":"SGP4","CENTER_NAME":"EARTH","BSTAR":"0.00006386900000","PERIAPSIS":"546.274","LAUNCH_DATE":"2020-11-25","SEMIMAJOR_AXIS":"6925.337","SITE":"AFETR","NORAD_CAT_ID":"47151","ARG_OF_PERICENTER":"94.0216","RA_OF_ASC_NODE":"76.7382","OBJECT_TYPE":"PAYLOAD","TLE_LINE2":"2 47151  53.0548  76.7382 0001341  94.0216 266.0926 15.06403666105991","CLASSIFICATION_TYPE":"U","APOAPSIS":"548.131","TIME_SYSTEM":"UTC","ECCENTRICITY":"0.00013410","GP_ID":"215993474","OBJECT_NAME":"STARLINK-1864","MEAN_MOTION":"15.06403666","OBJECT_ID":"2020-088AF","EPHEMERIS_TYPE":"0","COUNTRY_CODE":"US","REV_AT_EPOCH":"10599","RCS_SIZE":"LARGE","FILE":"3630604"},{"TLE_LINE2":"2 47152  53.0561  76.7807 0001227 109.4029 250.7093 15.06407576105994","OBJECT_TYPE":"PAYLOAD","CLASSIFICATION_TYPE":"U","APOAPSIS":"548.040","NORAD_CAT_ID":"47152","RA_OF_ASC_NODE":"76.7807","ARG_OF_PERICENTER":"109.4029","GP_ID":"215994225","TIME_SYSTEM":"UTC","ECCENTRICITY":"0.00012270","MEAN_MOTION":"15.06407576","OBJECT_ID":"2020-088AG","EPHEMERIS_TYPE":"0","OBJECT_NAME":"STARLINK-1866","REV_AT_EPOCH":"10599","RCS_SIZE":"LARGE","FILE":"3630604","COUNTRY_CODE":"US","MEAN_MOTION_DDOT":"0.0000000000000","INCLINATION":"53.0561","EPOCH":"2022-10-23T16:22:21.343872","REF_FRAME":"TEME","MEAN_ANOMALY":"250.7093","DECAY_DATE":null,"MEAN_MOTION_DOT":"0.00002308","TLE_LINE1":"1 47152U 20088AG  22296.68219148  .00002308  00000-0  17376-3 0  9997","PERIOD":"95.592","ELEMENT_SET_NO":"999","MEAN_ELEMENT_THEORY":"SGP4","CENTER_NAME":"EARTH","PERIAPSIS":"546.341","LAUNCH_DATE":"2020-11-25","SEMIMAJOR_AXIS":"6925.325","SITE":"AFETR","BSTAR":"0.00017376000000"},{"OBJECT_NAME":"STARLINK-1867","EPHEMERIS_TYPE":"0","OBJECT_ID":"2020-088AH","MEAN_MOTION":"15.06407920","COUNTRY_CODE":"US","FILE":"3630604","REV_AT_EPOCH":"10592","RCS_SIZE":"LARGE","ARG_OF_PERICENTER":"99.7140","RA_OF_ASC_NODE":"82.0507","NORAD_CAT_ID":"47153","APOAPSIS":"548.187","TLE_LINE2":"2 47153  53.0542  82.0507 0001440  99.7140 260.4012 15.06407920105928","OBJECT_TYPE":"PAYLOAD","CLASSIFICATION_TYPE":"U","ECCENTRICITY":"0.00014400","TIME_SYSTEM":"UTC","GP_ID":"215994977","CENTER_NAME":"EARTH","MEAN_ELEMENT_THEORY":"SGP4","BSTAR":"0.00022463000000","SITE":"AFETR","SEMIMAJOR_AXIS":"6925.324","LAUNCH_DATE":"2020-11-25","PERIAPSIS":"546.192","EPOCH":"2022-10-23T16:20:27.399552","INCLINATION":"53.0542","MEAN_MOTION_DDOT":"0.0000000000000","ELEMENT_SET_NO":"999","PERIOD":"95.592","MEAN_MOTION_DOT":"0.00003067","TLE_LINE1":"1 47153U 20088AH  22296.68087268  .00003067  00000-0  22463-3 0  9990","DECAY_DATE":null,"MEAN_ANOMALY":"260.4012","REF_FRAME":"TEME"},{"NORAD_CAT_ID":"47154","RA_OF_ASC_NODE":"66.9159","ARG_OF_PERICENTER":"78.9299","TLE_LINE2":"2 47154  53.0551  66.9159 0001907  78.9299 281.1905 15.06439270106133","OBJECT_TYPE":"PAYLOAD","CLASSIFICATION_TYPE":"U","APOAPSIS":"548.414","ECCENTRICITY":"0.00019070","TIME_SYSTEM":"UTC","GP_ID":"215993725","OBJECT_NAME":"STARLINK-1868","MEAN_MOTION":"15.06439270","OBJECT_ID":"2020-088AJ","EPHEMERIS_TYPE":"0","COUNTRY_CODE":"US","RCS_SIZE":"LARGE","REV_AT_EPOCH":"10613","FILE":"3630604","INCLINATION":"53.0551","EPOCH":"2022-10-23T15:42:34.261344","MEAN_MOTION_DDOT":"0.0000000000000","PERIOD":"95.590","ELEMENT_SET_NO":"999","REF_FRAME":"TEME","MEAN_ANOMALY":"281.1905","DECAY_DATE":null,"TLE_LINE1":"1 47154U 20088AJ  22296.65456321 -.00005993  00000-0 -38333-3 0  9993","MEAN_MOTION_DOT":"-0.00005993","MEAN_ELEMENT_THEORY":"SGP4","CENTER_NAME":"EARTH","BSTAR":"-0.00038333000000","PERIAPSIS":"545.773","LAUNCH_DATE":"2020-11-25","SITE":"AFETR","SEMIMAJOR_AXIS":"6925.228"},{"TIME_SYSTEM":"UTC","ECCENTRICITY":"0.00013200","GP_ID":"215993975","NORAD_CAT_ID":"47155","ARG_OF_PERICENTER":"119.2161","RA_OF_ASC_NODE":"86.7829","APOAPSIS":"548.107","TLE_LINE2":"2 47155  53.0546  86.7829 0001320 119.2161 240.8960 15.06406775105853","CLASSIFICATION_TYPE":"U","OBJECT_TYPE":"PAYLOAD","COUNTRY_CODE":"US","RCS_SIZE":"LARGE","REV_AT_EPOCH":"10585","FILE":"3630604","OBJECT_NAME":"STARLINK-1869","EPHEMERIS_TYPE":"0","MEAN_MOTION":"15.06406775","OBJECT_ID":"2020-088AK","PERIOD":"95.592","ELEMENT_SET_NO":"999","DECAY_DATE":null,"MEAN_ANOMALY":"240.8960","TLE_LINE1":"1 47155U 20088AK  22296.68959794  .00002268  00000-0  17109-3 0  9997","MEAN_MOTION_DOT":"0.00002268","REF_FRAME":"TEME","EPOCH":"2022-10-23T16:33:01.262016","INCLINATION":"53.0546","MEAN_MOTION_DDOT":"0.0000000000000","BSTAR":"0.00017109000000","SITE":"AFETR","SEMIMAJOR_AXIS":"6925.328","PERIAPSIS":"546.279","LAUNCH_DATE":"2020-11-25","CENTER_NAME":"EARTH","MEAN_ELEMENT_THEORY":"SGP4"},{"REV_AT_EPOCH":"10599","RCS_SIZE":"LARGE","FILE":"3630604","COUNTRY_CODE":"US","EPHEMERIS_TYPE":"0","MEAN_MOTION":"15.06408191","OBJECT_ID":"2020-088AM","OBJECT_NAME":"STARLINK-1871","GP_ID":"215994726","ECCENTRICITY":"0.00017480","TIME_SYSTEM":"UTC","APOAPSIS":"548.399","TLE_LINE2":"2 47157  53.0564  76.9003 0001748 101.7207 258.3978 15.06408191105993","CLASSIFICATION_TYPE":"U","OBJECT_TYPE":"PAYLOAD","NORAD_CAT_ID":"47157","RA_OF_ASC_NODE":"76.9003","ARG_OF_PERICENTER":"101.7207","SITE":"AFETR","SEMIMAJOR_AXIS":"6925.323","PERIAPSIS":"545.978","LAUNCH_DATE":"2020-11-25","BSTAR":"0.00012351000000","CENTER_NAME":"EARTH","MEAN_ELEMENT_THEORY":"SGP4","DECAY_DATE":null,"MEAN_ANOMALY":"258.3978","TLE_LINE1":"1 47157U 20088AM  22296.66102549  .00001559  00000-0  12351-3 0  9991","MEAN_MOTION_DOT":"0.00001559","REF_FRAME":"TEME","PERIOD":"95.592","ELEMENT_SET_NO":"999","MEAN_MOTION_DDOT":"0.0000000000000","EPOCH":"2022-10-23T15:51:52.602336","INCLINATION":"53.0564"},{"ELEMENT_SET_NO":"999","PERIOD":"95.591","REF_FRAME":"TEME","TLE_LINE1":"1 47158U 20088AN  22296.75041399  .00009386  00000-0  64783-3 0  9999","MEAN_MOTION_DOT":"0.00009386","DECAY_DATE":null,"MEAN_ANOMALY":"273.1373","INCLINATION":"53.0552","EPOCH":"2022-10-23T18:00:35.768736","MEAN_MOTION_DDOT":"0.0000000000000","BSTAR":"0.00064783000000","LAUNCH_DATE":"2020-11-25","PERIAPSIS":"546.263","SEMIMAJOR_AXIS":"6925.286","SITE":"AFETR","MEAN_ELEMENT_THEORY":"SGP4","CENTER_NAME":"EARTH","ECCENTRICITY":"0.00012820","TIME_SYSTEM":"UTC","GP_ID":"215994477","ARG_OF_PERICENTER":"86.9762","RA_OF_ASC_NODE":"66.5073","NORAD_CAT_ID":"47158","TLE_LINE2":"2 47158  53.0552  66.5073 0001282  86.9762 273.1373 15.06420317106142","CLASSIFICATION_TYPE":"U","OBJECT_TYPE":"PAYLOAD","APOAPSIS":"548.039","COUNTRY_CODE":"US","FILE":"3630604","RCS_SIZE":"LARGE","REV_AT_EPOCH":"10614","OBJECT_NAME":"STARLINK-1873","OBJECT_ID":"2020-088AN","MEAN_MOTION":"15.06420317","EPHEMERIS_TYPE":"0"}];
